<?xml version="1.0" encoding="UTF-8"?>
<ndm xmlns:xsi="http://www.w3.org/2001/XMLSchema-instance" xsi:noNamespaceSchemaLocation="https://sanaregistry.org/r/ndmxml_unqualified/ndmxml-2.0.0-master-2.0.xsd">
<omm id="CCSDS_OMM_VERS" version="2.0">
<header><CREATION_DATE/><ORIGINATOR/></header><body><segment><metadata><OBJECT_NAME>GLOBALSTAR M001</OBJECT_NAME><OBJECT_ID>1998-008A</OBJECT_ID><CENTER_NAME>EARTH</CENTER_NAME><REF_FRAME>TEME</REF_FRAME><TIME_SYSTEM>UTC</TIME_SYSTEM><MEAN_ELEMENT_THEORY>SGP4</MEAN_ELEMENT_THEORY></metadata><data><meanElements><EPOCH>2024-07-02T18:15:29.994048</EPOCH><MEAN_MOTION>12.38187590</MEAN_MOTION><ECCENTRICITY>.0001731</ECCENTRICITY><INCLINATION>52.0032</INCLINATION><RA_OF_ASC_NODE>270.2416</RA_OF_ASC_NODE><ARG_OF_PERICENTER>215.1681</ARG_OF_PERICENTER><MEAN_ANOMALY>296.2472</MEAN_ANOMALY></meanElements><tleParameters><EPHEMERIS_TYPE>0</EPHEMERIS_TYPE><CLASSIFICATION_TYPE>U</CLASSIFICATION_TYPE><NORAD_CAT_ID>25162</NORAD_CAT_ID><ELEMENT_SET_NO>999</ELEMENT_SET_NO><REV_AT_EPOCH>20042</REV_AT_EPOCH><BSTAR>.40826E-3</BSTAR><MEAN_MOTION_DOT>-.43E-6</MEAN_MOTION_DOT><MEAN_MOTION_DDOT>0</MEAN_MOTION_DDOT></tleParameters></data></segment></body></omm>
<omm id="CCSDS_OMM_VERS" version="2.0">
<header><CREATION_DATE/><ORIGINATOR/></header><body><segment><metadata><OBJECT_NAME>GLOBALSTAR M004</OBJECT_NAME><OBJECT_ID>1998-008B</OBJECT_ID><CENTER_NAME>EARTH</CENTER_NAME><REF_FRAME>TEME</REF_FRAME><TIME_SYSTEM>UTC</TIME_SYSTEM><MEAN_ELEMENT_THEORY>SGP4</MEAN_ELEMENT_THEORY></metadata><data><meanElements><EPOCH>2024-07-02T20:48:47.032128</EPOCH><MEAN_MOTION>12.63363803</MEAN_MOTION><ECCENTRICITY>.0002214</ECCENTRICITY><INCLINATION>52.0013</INCLINATION><RA_OF_ASC_NODE>39.8190</RA_OF_ASC_NODE><ARG_OF_PERICENTER>227.2625</ARG_OF_PERICENTER><MEAN_ANOMALY>206.1240</MEAN_ANOMALY></meanElements><tleParameters><EPHEMERIS_TYPE>0</EPHEMERIS_TYPE><CLASSIFICATION_TYPE>U</CLASSIFICATION_TYPE><NORAD_CAT_ID>25163</NORAD_CAT_ID><ELEMENT_SET_NO>999</ELEMENT_SET_NO><REV_AT_EPOCH>21753</REV_AT_EPOCH><BSTAR>.27926E-3</BSTAR><MEAN_MOTION_DOT>-.53E-6</MEAN_MOTION_DOT><MEAN_MOTION_DDOT>0</MEAN_MOTION_DDOT></tleParameters></data></segment></body></omm>
<omm id="CCSDS_OMM_VERS" version="2.0">
<header><CREATION_DATE/><ORIGINATOR/></header><body><segment><metadata><OBJECT_NAME>GLOBALSTAR M002</OBJECT_NAME><OBJECT_ID>1998-008C</OBJECT_ID><CENTER_NAME>EARTH</CENTER_NAME><REF_FRAME>TEME</REF_FRAME><TIME_SYSTEM>UTC</TIME_SYSTEM><MEAN_ELEMENT_THEORY>SGP4</MEAN_ELEMENT_THEORY></metadata><data><meanElements><EPOCH>2024-07-02T20:34:35.634432</EPOCH><MEAN_MOTION>11.61502740</MEAN_MOTION><ECCENTRICITY>.0000631</ECCENTRICITY><INCLINATION>52.0032</INCLINATION><RA_OF_ASC_NODE>36.0851</RA_OF_ASC_NODE><ARG_OF_PERICENTER>197.3246</ARG_OF_PERICENTER><MEAN_ANOMALY>162.7553</MEAN_ANOMALY></meanElements><tleParameters><EPHEMERIS_TYPE>0</EPHEMERIS_TYPE><CLASSIFICATION_TYPE>U</CLASSIFICATION_TYPE><NORAD_CAT_ID>25164</NORAD_CAT_ID><ELEMENT_SET_NO>999</ELEMENT_SET_NO><REV_AT_EPOCH>14347</REV_AT_EPOCH><BSTAR>.90774E-4</BSTAR><MEAN_MOTION_DOT>-.72E-6</MEAN_MOTION_DOT><MEAN_MOTION_DDOT>0</MEAN_MOTION_DDOT></tleParameters></data></segment></body></omm>
<omm id="CCSDS_OMM_VERS" version="2.0">
<header><CREATION_DATE/><ORIGINATOR/></header><body><segment><metadata><OBJECT_NAME>GLOBALSTAR M003</OBJECT_NAME><OBJECT_ID>1998-008D</OBJECT_ID><CENTER_NAME>EARTH</CENTER_NAME><REF_FRAME>TEME</REF_FRAME><TIME_SYSTEM>UTC</TIME_SYSTEM><MEAN_ELEMENT_THEORY>SGP4</MEAN_ELEMENT_THEORY></metadata><data><meanElements><EPOCH>2024-07-02T19:05:22.904736</EPOCH><MEAN_MOTION>12.12015358</MEAN_MOTION><ECCENTRICITY>.0007569</ECCENTRICITY><INCLINATION>51.9900</INCLINATION><RA_OF_ASC_NODE>56.1952</RA_OF_ASC_NODE><ARG_OF_PERICENTER>314.4151</ARG_OF_PERICENTER><MEAN_ANOMALY>122.7709</MEAN_ANOMALY></meanElements><tleParameters><EPHEMERIS_TYPE>0</EPHEMERIS_TYPE><CLASSIFICATION_TYPE>U</CLASSIFICATION_TYPE><NORAD_CAT_ID>25165</NORAD_CAT_ID><ELEMENT_SET_NO>999</ELEMENT_SET_NO><REV_AT_EPOCH>19085</REV_AT_EPOCH><BSTAR>.12747E-2</BSTAR><MEAN_MOTION_DOT>.3E-6</MEAN_MOTION_DOT><MEAN_MOTION_DDOT>0</MEAN_MOTION_DDOT></tleParameters></data></segment></body></omm>
<omm id="CCSDS_OMM_VERS" version="2.0">
<header><CREATION_DATE/><ORIGINATOR/></header><body><segment><metadata><OBJECT_NAME>GLOBALSTAR M014</OBJECT_NAME><OBJECT_ID>1998-023A</OBJECT_ID><CENTER_NAME>EARTH</CENTER_NAME><REF_FRAME>TEME</REF_FRAME><TIME_SYSTEM>UTC</TIME_SYSTEM><MEAN_ELEMENT_THEORY>SGP4</MEAN_ELEMENT_THEORY></metadata><data><meanElements><EPOCH>2024-07-02T19:50:03.736896</EPOCH><MEAN_MOTION>11.65469317</MEAN_MOTION><ECCENTRICITY>.0001549</ECCENTRICITY><INCLINATION>51.9863</INCLINATION><RA_OF_ASC_NODE>326.7334</RA_OF_ASC_NODE><ARG_OF_PERICENTER>94.7962</ARG_OF_PERICENTER><MEAN_ANOMALY>53.6973</MEAN_ANOMALY></meanElements><tleParameters><EPHEMERIS_TYPE>0</EPHEMERIS_TYPE><CLASSIFICATION_TYPE>U</CLASSIFICATION_TYPE><NORAD_CAT_ID>25306</NORAD_CAT_ID><ELEMENT_SET_NO>999</ELEMENT_SET_NO><REV_AT_EPOCH>15043</REV_AT_EPOCH><BSTAR>.26474E-3</BSTAR><MEAN_MOTION_DOT>-.63E-6</MEAN_MOTION_DOT><MEAN_MOTION_DDOT>0</MEAN_MOTION_DDOT></tleParameters></data></segment></body></omm>
<omm id="CCSDS_OMM_VERS" version="2.0">
<header><CREATION_DATE/><ORIGINATOR/></header><body><segment><metadata><OBJECT_NAME>GLOBALSTAR M006</OBJECT_NAME><OBJECT_ID>1998-023B</OBJECT_ID><CENTER_NAME>EARTH</CENTER_NAME><REF_FRAME>TEME</REF_FRAME><TIME_SYSTEM>UTC</TIME_SYSTEM><MEAN_ELEMENT_THEORY>SGP4</MEAN_ELEMENT_THEORY></metadata><data><meanElements><EPOCH>2024-07-02T23:01:36.842016</EPOCH><MEAN_MOTION>11.58163151</MEAN_MOTION><ECCENTRICITY>.0003725</ECCENTRICITY><INCLINATION>51.9961</INCLINATION><RA_OF_ASC_NODE>5.8175</RA_OF_ASC_NODE><ARG_OF_PERICENTER>183.0471</ARG_OF_PERICENTER><MEAN_ANOMALY>334.3427</MEAN_ANOMALY></meanElements><tleParameters><EPHEMERIS_TYPE>0</EPHEMERIS_TYPE><CLASSIFICATION_TYPE>U</CLASSIFICATION_TYPE><NORAD_CAT_ID>25307</NORAD_CAT_ID><ELEMENT_SET_NO>999</ELEMENT_SET_NO><REV_AT_EPOCH>17636</REV_AT_EPOCH><BSTAR>-.60827E-3</BSTAR><MEAN_MOTION_DOT>-.105E-5</MEAN_MOTION_DOT><MEAN_MOTION_DDOT>0</MEAN_MOTION_DDOT></tleParameters></data></segment></body></omm>
<omm id="CCSDS_OMM_VERS" version="2.0">
<header><CREATION_DATE/><ORIGINATOR/></header><body><segment><metadata><OBJECT_NAME>GLOBALSTAR M015</OBJECT_NAME><OBJECT_ID>1998-023C</OBJECT_ID><CENTER_NAME>EARTH</CENTER_NAME><REF_FRAME>TEME</REF_FRAME><TIME_SYSTEM>UTC</TIME_SYSTEM><MEAN_ELEMENT_THEORY>SGP4</MEAN_ELEMENT_THEORY></metadata><data><meanElements><EPOCH>2024-07-02T21:36:07.500384</EPOCH><MEAN_MOTION>11.48851940</MEAN_MOTION><ECCENTRICITY>.0012112</ECCENTRICITY><INCLINATION>51.9827</INCLINATION><RA_OF_ASC_NODE>88.4259</RA_OF_ASC_NODE><ARG_OF_PERICENTER>173.8582</ARG_OF_PERICENTER><MEAN_ANOMALY>266.5334</MEAN_ANOMALY></meanElements><tleParameters><EPHEMERIS_TYPE>0</EPHEMERIS_TYPE><CLASSIFICATION_TYPE>U</CLASSIFICATION_TYPE><NORAD_CAT_ID>25308</NORAD_CAT_ID><ELEMENT_SET_NO>999</ELEMENT_SET_NO><REV_AT_EPOCH>15393</REV_AT_EPOCH><BSTAR>-.13075E-2</BSTAR><MEAN_MOTION_DOT>-.131E-5</MEAN_MOTION_DOT><MEAN_MOTION_DDOT>0</MEAN_MOTION_DDOT></tleParameters></data></segment></body></omm>
<omm id="CCSDS_OMM_VERS" version="2.0">
<header><CREATION_DATE/><ORIGINATOR/></header><body><segment><metadata><OBJECT_NAME>GLOBALSTAR M008</OBJECT_NAME><OBJECT_ID>1998-023D</OBJECT_ID><CENTER_NAME>EARTH</CENTER_NAME><REF_FRAME>TEME</REF_FRAME><TIME_SYSTEM>UTC</TIME_SYSTEM><MEAN_ELEMENT_THEORY>SGP4</MEAN_ELEMENT_THEORY></metadata><data><meanElements><EPOCH>2024-07-02T21:28:52.343328</EPOCH><MEAN_MOTION>12.36044912</MEAN_MOTION><ECCENTRICITY>.0002261</ECCENTRICITY><INCLINATION>51.9954</INCLINATION><RA_OF_ASC_NODE>130.7206</RA_OF_ASC_NODE><ARG_OF_PERICENTER>152.7080</ARG_OF_PERICENTER><MEAN_ANOMALY>242.1653</MEAN_ANOMALY></meanElements><tleParameters><EPHEMERIS_TYPE>0</EPHEMERIS_TYPE><CLASSIFICATION_TYPE>U</CLASSIFICATION_TYPE><NORAD_CAT_ID>25309</NORAD_CAT_ID><ELEMENT_SET_NO>999</ELEMENT_SET_NO><REV_AT_EPOCH>19496</REV_AT_EPOCH><BSTAR>.20041E-4</BSTAR><MEAN_MOTION_DOT>-.94E-6</MEAN_MOTION_DOT><MEAN_MOTION_DDOT>0</MEAN_MOTION_DDOT></tleParameters></data></segment></body></omm>

</ndm>
