GLOBALSTAR M001         
1 25162U 98008A   24184.76076382 -.00000043  00000+0  40826-3 0  9999
2 25162  52.0032 270.2416 0001731 215.1681 296.2472 12.38187590200422
GLOBALSTAR M004         
1 25163U 98008B   24184.86721102 -.00000053  00000+0  27926-3 0  9995
2 25163  52.0013  39.8190 0002214 227.2625 206.1240 12.63363803217533
GLOBALSTAR M002         
1 25164U 98008C   24184.85735688 -.00000072  00000+0  90774-4 0  9992
2 25164  52.0032  36.0851 0000631 197.3246 162.7553 11.61502740143472
GLOBALSTAR M003         
1 25165U 98008D   24184.79540399  .00000030  00000+0  12747-2 0  9994
2 25165  51.9900  56.1952 0007569 314.4151 122.7709 12.12015358190858
GLOBALSTAR M014         
1 25306U 98023A   24184.82643214 -.00000063  00000+0  26474-3 0  9992
2 25306  51.9863 326.7334 0001549  94.7962  53.6973 11.65469317150433
GLOBALSTAR M006         
1 25307U 98023B   24184.95945419 -.00000105  00000+0 -60827-3 0  9997
2 25307  51.9961   5.8175 0003725 183.0471 334.3427 11.58163151176368
GLOBALSTAR M015         
1 25308U 98023C   24184.90008681 -.00000131  00000+0 -13075-2 0  9995
2 25308  51.9827  88.4259 0012112 173.8582 266.5334 11.48851940153930
GLOBALSTAR M008         
1 25309U 98023D   24184.89505027 -.00000094  00000+0  20041-4 0  9990
2 25309  51.9954 130.7206 0002261 152.7080 242.1653 12.36044912194961
